IRIDIUM 33 DEB          
1 39791U 97051AAY 21270.74121625  .00010681  00000-0  24197-2 0  9992
2 39791  86.3496  54.1720 0128667 336.6494  89.0941 14.51006520481391
IRIDIUM 33 DEB          
1 39792U 97051AAZ 21275.00160968  .00001987  00000-0  98133-3 0  9991
2 39792  86.4245 122.4425 0193977 287.8731  70.1379 14.07744715389617
IRIDIUM 33 DEB          
1 40992U 97051ABE 21273.21101632  .00003419  00000-0  65919-3 0  9997
2 40992  86.3003 259.5794 0019475 244.4653 128.6110 14.63150913509861
IRIDIUM 33 DEB          
1 40993U 97051ABF 21274.52847258  .00007268  00000-0  12085-2 0  9995
2 40993  86.3722 297.1266 0026417 120.4655  32.8757 14.69753604488839
IRIDIUM 33 DEB          
1 40994U 97051ABG 21274.76696264  .00005022  00000-0  79958-3 0  9990
2 40994  86.3877 285.6948 0010944 134.0977 226.1142 14.71802439374683
IRIDIUM 33 DEB          
1 40995U 97051ABH 21274.93200497  .00002101  00000-0  54901-3 0  9995
2 40995  86.3923 338.0761 0042737  83.3890  41.5445 14.48439350485946
IRIDIUM 33 DEB          
1 40996U 97051ABJ 21274.87930100  .00001498  00000-0  39286-3 0  9997
2 40996  86.3721 317.6747 0011654 234.1046 301.2921 14.48627126400833
IRIDIUM 33 DEB          
1 40997U 97051ABK 21275.14251572  .00181151  00000-0  64141-2 0  9990
2 40997  86.3378 233.2118 0011741  63.7639 296.4814 15.28316321548805
IRIDIUM 33 DEB          
1 40998U 97051ABL 21274.99132156  .00000423  00000-0  13383-3 0  9994
2 40998  86.3895 343.0877 0010572  87.2365  33.5810 14.37783171850431
IRIDIUM 33 DEB          
1 46435U 97051ABN 21274.83662102  .00000744  00000-0  37773-3 0  9993
2 46435  86.2903 103.8270 0340572 356.6700  62.7679 13.88940397493680
IRIDIUM 33 DEB          
1 46436U 97051ABP 21275.18306449  .00005036  00000-0  75562-3 0  9999
2 46436  86.3108 241.1749 0024803  99.3940 273.3262 14.74191617512824
IRIDIUM 33 DEB          
1 46437U 97051ABQ 21273.55026428  .00015365  00000-0  20348-2 0  9992
2 46437  86.5213  10.4066 0068909 122.5700 250.8299 14.78134820539445
IRIDIUM 33 DEB          
1 46734U 97051ABR 21274.86434299  .00000408  00000-0  14538-3 0  9993
2 46734  86.2672 307.5985 0046410 293.2089 242.6981 14.31353614410257
IRIDIUM 33 DEB          
1 46804U 97051ABS 21273.39690017  .00003477  00000-0  13296-2 0  9998
2 46804  86.1610 298.0923 0112487 307.5029 115.9731 14.27030305472182
IRIDIUM 33 DEB          
1 46961U 97051ABT 21274.96174884  .00006740  00000-0  14833-2 0  9999
2 46961  86.3924 351.6689 0064048 131.0778 229.5988 14.56056211486920
IRIDIUM 33 DEB          
1 46962U 97051ABU 21273.50397028  .00003063  00000-0  98526-3 0  9993
2 46962  86.3300 358.5848 0095294 106.4376 268.1969 14.36458173507371
IRIDIUM 33 DEB          
1 46963U 97051ABV 21272.28808737  .00002291  00000-0  55910-3 0  9994
2 46963  86.2946 282.6725 0056105  78.5408 282.2090 14.51282857493277
IRIDIUM 33 DEB          
1 46964U 97051ABW 21273.64386618  .00002894  00000-0  56256-3 0  9998
2 46964  86.2629 238.3001 0049460 274.3571  85.1990 14.62042495514451
IRIDIUM 33 DEB          
1 46965U 97051ABX 21275.02218153  .00000658  00000-0  17247-3 0  9994
2 46965  86.3358 290.8792 0026494  69.6573 320.3340 14.47573523400216
IRIDIUM 33 DEB          
1 46966U 97051ABY 21274.74203319  .00004624  00000-0  17914-2 0  9998
2 46966  86.4246  83.0927 0135983 359.7100   0.3988 14.24892338495646
IRIDIUM 33 DEB          
1 46967U 97051ABZ 21275.02735215  .00005330  00000-0  74384-3 0  9996
2 46967  86.2422 188.6398 0039536  27.8628 332.4697 14.76966045517320
IRIDIUM 33 DEB          
1 46968U 97051ACA 21275.14077417  .00037734  00000-0  20001-2 0  9992
2 46968  86.2710 156.5518 0018577 341.4741 170.5565 15.15072834287666
IRIDIUM 33 DEB          
1 46969U 97051ACB 21275.04274550  .00048600  00000-0  34663-2 0  9992
2 46969  86.2058 185.9014 0021235 313.3153  46.6310 15.04158318406135
IRIDIUM 33 DEB          
1 46970U 97051ACC 21271.51077435  .00013959  00000-0  15119-2 0  9999
2 46970  86.1900 175.4113 0021555 153.0661  21.9681 14.87967894421988
IRIDIUM 33 DEB          
1 46971U 97051ACD 21274.36761638  .00001298  00000-0  31793-3 0  9991
2 46971  86.3499 295.8610 0013051 123.2094 293.9583 14.51716541417769
IRIDIUM 33 DEB          
1 46972U 97051ACE 21274.89936434  .00000478  00000-0  13929-3 0  9998
2 46972  86.3927 333.0276 0011546 145.1813 339.0776 14.42087443394311
IRIDIUM 33 DEB          
1 46973U 97051ACF 21273.79804574  .00005101  00000-0  21262-2 0  9992
2 46973  86.3822  95.6018 0192112 224.7451 133.8103 14.16655349380239
IRIDIUM 33 DEB          
1 46974U 97051ACG 21274.06243169  .00001489  00000-0  69232-3 0  9996
2 46974  86.3163  32.5514 0142599  73.3316 288.3467 14.14712778356624
IRIDIUM 33 DEB          
1 46975U 97051ACH 21270.87022082  .00004480  00000-0  79500-3 0  9994
2 46975  86.3940 306.7554 0026304 150.9996 331.4073 14.66808261371674
IRIDIUM 33 DEB          
1 46976U 97051ACJ 21273.97731663  .00002881  00000-0  14340-2 0  9994
2 46976  86.4598 146.2116 0190637 345.8503  77.1900 14.07757393399471
IRIDIUM 33 DEB          
1 46977U 97051ACK 21272.61994548  .00003436  00000-0  93348-3 0  9991
2 46977  86.1763 227.3944 0040447 159.1757 201.1105 14.46824914366504
IRIDIUM 33 DEB          
1 46978U 97051ACL 21274.62984120  .00004318  00000-0  81213-3 0  9998
2 46978  86.2405 219.3889 0036734 246.6744 288.7268 14.64000957509750
IRIDIUM 33 DEB          
1 46979U 97051ACM 21274.97535757  .00001428  00000-0  48231-3 0  9997
2 46979  86.3600 354.9427 0068874 329.3750  30.3433 14.34971985132087
IRIDIUM 33 DEB          
1 46980U 97051ACN 21274.42986031  .00001570  00000-0  40522-3 0  9997
2 46980  86.3840 324.3631 0007710 322.8384  37.2285 14.49422323365493
IRIDIUM 33 DEB          
1 46981U 97051ACP 21275.01007238  .00004044  00000-0  13225-2 0  9995
2 46981  86.3151   3.3366 0119867 156.2401 327.9373 14.34274607378028
IRIDIUM 33 DEB          
1 46982U 97051ACQ 21274.79947447  .00004775  00000-0  81945-3 0  9991
2 46982  86.3770 284.9832 0007493 245.5805 289.2547 14.68526258257277
IRIDIUM 33 DEB          
1 46983U 97051ACR 21274.79701090  .00005962  00000-0  98449-3 0  9990
2 46983  86.3678 284.7353 0004711  34.5777 140.2057 14.70271808485428
